{"type": "FeatureCollection", "features": [ {"type": "Feature", "properties": {"norad_id": 67100, "name": "STARLINK-36215", "group": "last-30-days", "lat": -18.310510235202344, "lon": 50.794026769406045, "alt_km": 305.9384708290827, "timestamp": "2025-12-21T22:41:40.168673+00:00", "meta": {"OBJECT_NAME": "STARLINK-36215", "OBJECT_ID": "2025-298AB", "EPOCH": "2025-12-21T14:00:01.999872", "MEAN_MOTION": 15.89915099, "ECCENTRICITY": 0.00034084, "INCLINATION": 69.9971, "RA_OF_ASC_NODE": 224.9185, "ARG_OF_PERICENTER": 262.6932, "MEAN_ANOMALY": 23.9851, "EPHEMERIS_TYPE": 0, "CLASSIFICATION_TYPE": "U", "NORAD_CAT_ID": 67100, "ELEMENT_SET_NO": 999, "REV_AT_EPOCH": 240, "BSTAR": 0.000130341, "MEAN_MOTION_DOT": 0.00037754, "MEAN_MOTION_DDOT": 4.431868e-06}, "tle": {"line1": "1 67100U 25298AB  25355.58335648  .00037754  44319-5  13034-3 0  9998", "line2": "2 67100  69.9971 224.9185 0003408 262.6932  23.9851 15.89915099  2403"}}, "geometry": {"type": "Point", "coordinates": [50.794026769406045, -18.310510235202344]}}, {"type": "Feature", "properties": {"norad_id": 67101, "name": "STARLINK-36200", "group": "last-30-days", "lat": -15.164180086353449, "lon": 49.54030772838135, "alt_km": 306.29066294624226, "timestamp": "2025-12-21T22:41:40.168683+00:00", "meta": {"OBJECT_NAME": "STARLINK-36200", "OBJECT_ID": "2025-298AC", "EPOCH": "2025-12-21T14:00:01.999872", "MEAN_MOTION": 15.89816029, "ECCENTRICITY": 0.00035051, "INCLINATION": 69.9975, "RA_OF_ASC_NODE": 224.9226, "ARG_OF_PERICENTER": 270.0978, "MEAN_ANOMALY": 13.3408, "EPHEMERIS_TYPE": 0, "CLASSIFICATION_TYPE": "U", "NORAD_CAT_ID": 67101, "ELEMENT_SET_NO": 999, "REV_AT_EPOCH": 240, "BSTAR": 0.00014577154, "MEAN_MOTION_DOT": 0.00042154, "MEAN_MOTION_DDOT": 4.555469e-06}, "tle": {"line1": "1 67101U 25298AC  25355.58335648  .00042154  45555-5  14577-3 0  9995", "line2": "2 67101  69.9975 224.9226 0003505 270.0978  13.3408 15.89816029  2409"}}, "geometry": {"type": "Point", "coordinates": [49.54030772838135, -15.164180086353449]}}, {"type": "Feature", "properties": {"norad_id": 67102, "name": "STARLINK-36255", "group": "last-30-days", "lat": -2.3591885373711747, "lon": -102.04695366152092, "alt_km": 291.67562720905516, "timestamp": "2025-12-21T22:41:40.168693+00:00", "meta": {"OBJECT_NAME": "STARLINK-36255", "OBJECT_ID": "2025-299A", "EPOCH": "2025-12-21T14:00:01.999872", "MEAN_MOTION": 15.93880424, "ECCENTRICITY": 0.00020419, "INCLINATION": 42.9991, "RA_OF_ASC_NODE": 262.7473, "ARG_OF_PERICENTER": 261.3938, "MEAN_ANOMALY": 174.0841, "EPHEMERIS_TYPE": 0, "CLASSIFICATION_TYPE": "U", "NORAD_CAT_ID": 67102, "ELEMENT_SET_NO": 999, "REV_AT_EPOCH": 223, "BSTAR": -0.00013315035, "MEAN_MOTION_DOT": -0.00053337, "MEAN_MOTION_DDOT": 9.287186e-06}, "tle": {"line1": "1 67102U 25299A   25355.58335648 -.00053337  92872-5 -13315-3 0  9997", "line2": "2 67102  42.9991 262.7473 0002041 261.3938 174.0841 15.93880424  2238"}}, "geometry": {"type": "Point", "coordinates": [-102.04695366152092, -2.3591885373711747]}}, {"type": "Feature", "properties": {"norad_id": 67103, "name": "STARLINK-36256", "group": "last-30-days", "lat": -1.6022836826951972, "lon": -101.2358465726093, "alt_km": 291.25473022208007, "timestamp": "2025-12-21T22:41:40.168703+00:00", "meta": {"OBJECT_NAME": "STARLINK-36256", "OBJECT_ID": "2025-299B", "EPOCH": "2025-12-21T14:00:01.999872", "MEAN_MOTION": 15.93825406, "ECCENTRICITY": 0.00022866, "INCLINATION": 42.9991, "RA_OF_ASC_NODE": 262.7445, "ARG_OF_PERICENTER": 271.9652, "MEAN_ANOMALY": 164.6398, "EPHEMERIS_TYPE": 0, "CLASSIFICATION_TYPE": "U", "NORAD_CAT_ID": 67103, "ELEMENT_SET_NO": 999, "REV_AT_EPOCH": 223, "BSTAR": 0.00016449157, "MEAN_MOTION_DOT": 0.0005978, "MEAN_MOTION_DDOT": 9.778691e-06}, "tle": {"line1": "1 67103U 25299B   25355.58335648  .00059780  97787-5  16449-3 0  9995", "line2": "2 67103  42.9991 262.7445 0002286 271.9652 164.6398 15.93825406  2230"}}, "geometry": {"type": "Point", "coordinates": [-101.2358465726093, -1.6022836826951972]}}, {"type": "Feature", "properties": {"norad_id": 67104, "name": "STARLINK-36258", "group": "last-30-days", "lat": -0.663354226904185, "lon": -100.23106086319207, "alt_km": 291.481082986561, "timestamp": "2025-12-21T22:41:40.168713+00:00", "meta": {"OBJECT_NAME": "STARLINK-36258", "OBJECT_ID": "2025-299C", "EPOCH": "2025-12-21T14:00:01.999872", "MEAN_MOTION": 15.93875192, "ECCENTRICITY": 0.00029497, "INCLINATION": 42.9992, "RA_OF_ASC_NODE": 262.741, "ARG_OF_PERICENTER": 264.1683, "MEAN_ANOMALY": 173.7922, "EPHEMERIS_TYPE": 0, "CLASSIFICATION_TYPE": "U", "NORAD_CAT_ID": 67104, "ELEMENT_SET_NO": 999, "REV_AT_EPOCH": 223, "BSTAR": -0.00011970568, "MEAN_MOTION_DOT": -0.00048216, "MEAN_MOTION_DDOT": 9.114349e-06}, "tle": {"line1": "1 67104U 25299C   25355.58335648 -.00048216  91143-5 -11971-3 0  9995", "line2": "2 67104  42.9992 262.7410 0002949 264.1683 173.7922 15.93875192  2239"}}, "geometry": {"type": "Point", "coordinates": [-100.23106086319207, -0.663354226904185]}}, {"type": "Feature", "properties": {"norad_id": 67105, "name": "STARLINK-36261", "group": "last-30-days", "lat": 0.029784352929959138, "lon": -99.48963387182567, "alt_km": 291.4259668428158, "timestamp": "2025-12-21T22:41:40.168724+00:00", "meta": {"OBJECT_NAME": "STARLINK-36261", "OBJECT_ID": "2025-299D", "EPOCH": "2025-12-21T14:00:01.999872", "MEAN_MOTION": 15.9393736, "ECCENTRICITY": 0.00022872, "INCLINATION": 42.9991, "RA_OF_ASC_NODE": 262.7386, "ARG_OF_PERICENTER": 264.0824, "MEAN_ANOMALY": 174.8653, "EPHEMERIS_TYPE": 0, "CLASSIFICATION_TYPE": "U", "NORAD_CAT_ID": 67105, "ELEMENT_SET_NO": 999, "REV_AT_EPOCH": 223, "BSTAR": -0.00036613941, "MEAN_MOTION_DOT": -0.00142444, "MEAN_MOTION_DDOT": 1.511647e-05}, "tle": {"line1": "1 67105U 25299D   25355.58335648 -.00142444  15116-4 -36614-3 0  9990", "line2": "2 67105  42.9991 262.7386 0002287 264.0824 174.8653 15.93937360  2231"}}, "geometry": {"type": "Point", "coordinates": [-99.48963387182567, 0.029784352929959138]}}, {"type": "Feature", "properties": {"norad_id": 67106, "name": "STARLINK-36259", "group": "last-30-days", "lat": 2.1686714100139266, "lon": -97.20033892839454, "alt_km": 291.1380488456007, "timestamp": "2025-12-21T22:41:40.168734+00:00", "meta": {"OBJECT_NAME": "STARLINK-36259", "OBJECT_ID": "2025-299E", "EPOCH": "2025-12-21T14:00:01.999872", "MEAN_MOTION": 15.94145984, "ECCENTRICITY": 0.00025535, "INCLINATION": 42.9992, "RA_OF_ASC_NODE": 262.731, "ARG_OF_PERICENTER": 270.289, "MEAN_ANOMALY": 171.6705, "EPHEMERIS_TYPE": 0, "CLASSIFICATION_TYPE": "U", "NORAD_CAT_ID": 67106, "ELEMENT_SET_NO": 999, "REV_AT_EPOCH": 223, "BSTAR": -0.0011933991, "MEAN_MOTION_DOT": -0.00463035, "MEAN_MOTION_DDOT": 7.761376e-05}, "tle": {"line1": "1 67106U 25299E   25355.58335648 -.00463035  77614-4 -11934-2 0  9991", "line2": "2 67106  42.9992 262.7310 0002553 270.2890 171.6705 15.94145984  2235"}}, "geometry": {"type": "Point", "coordinates": [-97.20033892839454, 2.1686714100139266]}}, {"type": "Feature", "properties": {"norad_id": 67107, "name": "STARLINK-36196", "group": "last-30-days", "lat": 1.0281405001680417, "lon": -98.4216702995135, "alt_km": 291.3031946415267, "timestamp": "2025-12-21T22:41:40.168746+00:00", "meta": {"OBJECT_NAME": "STARLINK-36196", "OBJECT_ID": "2025-299F", "EPOCH": "2025-12-21T14:00:01.999872", "MEAN_MOTION": 15.94042068, "ECCENTRICITY": 0.00021801, "INCLINATION": 42.9992, "RA_OF_ASC_NODE": 262.7351, "ARG_OF_PERICENTER": 266.3761, "MEAN_ANOMALY": 173.9739, "EPHEMERIS_TYPE": 0, "CLASSIFICATION_TYPE": "U", "NORAD_CAT_ID": 67107, "ELEMENT_SET_NO": 999, "REV_AT_EPOCH": 223, "BSTAR": -0.00077408723, "MEAN_MOTION_DOT": -0.00299753, "MEAN_MOTION_DDOT": 3.7982647e-05}, "tle": {"line1": "1 67107U 25299F   25355.58335648 -.00299753  37983-4 -77409-3 0  9991", "line2": "2 67107  42.9992 262.7351 0002180 266.3761 173.9739 15.94042068  2231"}}, "geometry": {"type": "Point", "coordinates": [-98.4216702995135, 1.0281405001680417]}}, {"type": "Feature", "properties": {"norad_id": 67108, "name": "STARLINK-36208", "group": "last-30-days", "lat": 3.2830341684485482, "lon": -96.00417610317531, "alt_km": 291.06175773151335, "timestamp": "2025-12-21T22:41:40.168756+00:00", "meta": {"OBJECT_NAME": "STARLINK-36208", "OBJECT_ID": "2025-299G", "EPOCH": "2025-12-21T14:00:01.999872", "MEAN_MOTION": 15.94231709, "ECCENTRICITY": 0.00027992, "INCLINATION": 42.9992, "RA_OF_ASC_NODE": 262.727, "ARG_OF_PERICENTER": 271.6206, "MEAN_ANOMALY": 171.9295, "EPHEMERIS_TYPE": 0, "CLASSIFICATION_TYPE": "U", "NORAD_CAT_ID": 67108, "ELEMENT_SET_NO": 999, "REV_AT_EPOCH": 223, "BSTAR": -0.0015717558, "MEAN_MOTION_DOT": -0.00611431, "MEAN_MOTION_DDOT": 0.00012672895}, "tle": {"line1": "1 67108U 25299G   25355.58335648 -.00611431  12673-3 -15718-2 0  9995", "line2": "2 67108  42.9992 262.7270 0002799 271.6206 171.9295 15.94231709  2238"}}, "geometry": {"type": "Point", "coordinates": [-96.00417610317531, 3.2830341684485482]}}, {"type": "Feature", "properties": {"norad_id": 67109, "name": "STARLINK-35764", "group": "last-30-days", "lat": 4.530976505347069, "lon": -94.65957888766691, "alt_km": 291.2634731926719, "timestamp": "2025-12-21T22:41:40.168766+00:00", "meta": {"OBJECT_NAME": "STARLINK-35764", "OBJECT_ID": "2025-299H", "EPOCH": "2025-12-21T14:00:01.999872", "MEAN_MOTION": 15.94368762, "ECCENTRICITY": 0.00023614, "INCLINATION": 42.9992, "RA_OF_ASC_NODE": 262.7226, "ARG_OF_PERICENTER": 259.6058, "MEAN_ANOMALY": 185.6843, "EPHEMERIS_TYPE": 0, "CLASSIFICATION_TYPE": "U", "NORAD_CAT_ID": 67109, "ELEMENT_SET_NO": 999, "REV_AT_EPOCH": 212, "BSTAR": -0.0019929044, "MEAN_MOTION_DOT": -0.00779466, "MEAN_MOTION_DDOT": 0.00019657647}, "tle": {"line1": "1 67109U 25299H   25355.58335648 -.00779466  19658-3 -19929-2 0  9997", "line2": "2 67109  42.9992 262.7226 0002361 259.6058 185.6843 15.94368762  2125"}}, "geometry": {"type": "Point", "coordinates": [-94.65957888766691, 4.530976505347069]}}]}